ONEWEB-0373             
1 49299U 21090W   22230.91667824  .00008097  00000+0  30299-2 0  9995
2 49299  87.6922 200.0675 0004844   7.4736 343.1818 14.31676353 46463
ONEWEB-0374             
1 49300U 21090X   22230.91667824  .00017775  00000+0  47820-1 0  9998
2 49300  87.9082 207.6832 0002220  91.4725 248.5747 13.14500624 45152
ONEWEB-0375             
1 49301U 21090Y   22231.25001157  .00000016  00000+0  00000+0 0  9995
2 49301  87.8494 192.7441 0002264 345.2832 182.0076 13.88994855 47205
ONEWEB-0376             
1 49302U 21090Z   22230.91667824  .00039902  00000+0  99226-1 0  9993
2 49302  87.9227 222.8480 0002385  89.0939   1.8922 13.19707365 43312
ONEWEB-0377             
1 49303U 21090AA  22231.25001157  .00000016  00000+0  00000+0 0  9997
2 49303  87.8306 192.7748 0002443  43.2253 198.6748 13.87347684 47187
ONEWEB-0378             
1 49304U 21090AB  22230.91667824 -.00006164  00000+0 -15201-1 0  9992
2 49304  87.9377 192.6129 0002240  88.7949 353.6515 13.20775533 46527
ONEWEB-0379             
1 49305U 21090AC  22230.91667824  .00016740  00000+0  45036-1 0  9991
2 49305  87.9084 207.6655 0002265  88.3166 326.6710 13.14504071 45164
ONEWEB-0380             
1 49306U 21090AD  22230.91667824  .00040270  00000+0  10014+0 0  9993
2 49306  87.9228 222.8543 0002006  80.9900  24.6772 13.19706637 43288
ONEWEB-0381             
1 49307U 21090AE  22230.91667824 -.00008460  00000+0 -20857-1 0  9999
2 49307  87.9347 192.5987 0001954  87.3133 265.2113 13.20773631 46551
ONEWEB-0382             
1 49308U 21090AF  22230.91667824 -.00007409  00000+0 -18266-1 0  9993
2 49308  87.9343 192.5860 0001635  94.3226 308.0285 13.20782053 46559
ONEWEB-0383             
1 49309U 21090AG  22230.91667824  .00016620  00000+0  44714-1 0  9994
2 49309  87.9082 207.6068 0002197  92.0924 337.9048 13.14504194 45190
ONEWEB-0384             
1 49310U 21090AH  22230.91667824 -.00007092  00000+0 -17487-1 0  9998
2 49310  87.9342 192.5991 0001270 105.1579 307.1933 13.20778236 46562
ONEWEB-0385             
1 49311U 21090AJ  22230.91667824 -.00006533  00000+0 -16110-1 0  9990
2 49311  87.9354 192.5733 0001807  96.1599 336.3259 13.20776659 46547
ONEWEB-0386             
1 49312U 21090AK  22230.91667824 -.00008337  00000+0 -20550-1 0  9998
2 49312  87.9362 192.5895 0002019 100.4108 261.9447 13.20785207 46559
ONEWEB-0387             
1 49313U 21090AL  22230.91667824 -.00006776  00000+0 -16708-1 0  9994
2 49313  87.9364 192.6029 0001894  79.0010 343.4966 13.20779720 46550
ONEWEB-0388             
1 49314U 21090AM  22230.91667824  .00055683  00000+0  13825+0 0  9999
2 49314  87.9214 222.8349 0002044  86.7402  33.5834 13.19703852 43283
ONEWEB-0389             
1 50469U 21132A   22230.91667824  .00005944  00000+0  15268-1 0  9999
2 50469  87.9055 283.7428 0001381 100.0879 305.2524 13.17642246 35232
