[{"OBJECT_NAME":"ONEWEB-0373","OBJECT_ID":"2021-090W","EPOCH":"2022-08-18T22:00:00.999936","MEAN_MOTION":14.31676353,"ECCENTRICITY":0.0004844,"INCLINATION":87.6922,"RA_OF_ASC_NODE":200.0675,"ARG_OF_PERICENTER":7.4736,"MEAN_ANOMALY":343.1818,"EPHEMERIS_TYPE":0,"CLASSIFICATION_TYPE":"U","NORAD_CAT_ID":49299,"ELEMENT_SET_NO":999,"REV_AT_EPOCH":4646,"BSTAR":0.0030299,"MEAN_MOTION_DOT":8.097e-5,"MEAN_MOTION_DDOT":0},{"OBJECT_NAME":"ONEWEB-0374","OBJECT_ID":"2021-090X","EPOCH":"2022-08-18T22:00:00.999936","MEAN_MOTION":13.14500624,"ECCENTRICITY":0.000222,"INCLINATION":87.9082,"RA_OF_ASC_NODE":207.6832,"ARG_OF_PERICENTER":91.4725,"MEAN_ANOMALY":248.5747,"EPHEMERIS_TYPE":0,"CLASSIFICATION_TYPE":"U","NORAD_CAT_ID":49300,"ELEMENT_SET_NO":999,"REV_AT_EPOCH":4515,"BSTAR":0.04782,"MEAN_MOTION_DOT":0.00017775,"MEAN_MOTION_DDOT":0},{"OBJECT_NAME":"ONEWEB-0375","OBJECT_ID":"2021-090Y","EPOCH":"2022-08-19T06:00:00.999648","MEAN_MOTION":13.88994855,"ECCENTRICITY":0.0002264,"INCLINATION":87.8494,"RA_OF_ASC_NODE":192.7441,"ARG_OF_PERICENTER":345.2832,"MEAN_ANOMALY":182.0076,"EPHEMERIS_TYPE":0,"CLASSIFICATION_TYPE":"U","NORAD_CAT_ID":49301,"ELEMENT_SET_NO":999,"REV_AT_EPOCH":4720,"BSTAR":0,"MEAN_MOTION_DOT":1.6e-7,"MEAN_MOTION_DDOT":0},{"OBJECT_NAME":"ONEWEB-0376","OBJECT_ID":"2021-090Z","EPOCH":"2022-08-18T22:00:00.999936","MEAN_MOTION":13.19707365,"ECCENTRICITY":0.0002385,"INCLINATION":87.9227,"RA_OF_ASC_NODE":222.848,"ARG_OF_PERICENTER":89.0939,"MEAN_ANOMALY":1.8922,"EPHEMERIS_TYPE":0,"CLASSIFICATION_TYPE":"U","NORAD_CAT_ID":49302,"ELEMENT_SET_NO":999,"REV_AT_EPOCH":4331,"BSTAR":0.099226,"MEAN_MOTION_DOT":0.00039902,"MEAN_MOTION_DDOT":0},{"OBJECT_NAME":"ONEWEB-0377","OBJECT_ID":"2021-090AA","EPOCH":"2022-08-19T06:00:00.999648","MEAN_MOTION":13.87347684,"ECCENTRICITY":0.0002443,"INCLINATION":87.8306,"RA_OF_ASC_NODE":192.7748,"ARG_OF_PERICENTER":43.2253,"MEAN_ANOMALY":198.6748,"EPHEMERIS_TYPE":0,"CLASSIFICATION_TYPE":"U","NORAD_CAT_ID":49303,"ELEMENT_SET_NO":999,"REV_AT_EPOCH":4718,"BSTAR":0,"MEAN_MOTION_DOT":1.6e-7,"MEAN_MOTION_DDOT":0},{"OBJECT_NAME":"ONEWEB-0378","OBJECT_ID":"2021-090AB","EPOCH":"2022-08-18T22:00:00.999936","MEAN_MOTION":13.20775533,"ECCENTRICITY":0.000224,"INCLINATION":87.9377,"RA_OF_ASC_NODE":192.6129,"ARG_OF_PERICENTER":88.7949,"MEAN_ANOMALY":353.6515,"EPHEMERIS_TYPE":0,"CLASSIFICATION_TYPE":"U","NORAD_CAT_ID":49304,"ELEMENT_SET_NO":999,"REV_AT_EPOCH":4652,"BSTAR":-0.015201,"MEAN_MOTION_DOT":-6.164e-5,"MEAN_MOTION_DDOT":0},{"OBJECT_NAME":"ONEWEB-0379","OBJECT_ID":"2021-090AC","EPOCH":"2022-08-18T22:00:00.999936","MEAN_MOTION":13.14504071,"ECCENTRICITY":0.0002265,"INCLINATION":87.9084,"RA_OF_ASC_NODE":207.6655,"ARG_OF_PERICENTER":88.3166,"MEAN_ANOMALY":326.671,"EPHEMERIS_TYPE":0,"CLASSIFICATION_TYPE":"U","NORAD_CAT_ID":49305,"ELEMENT_SET_NO":999,"REV_AT_EPOCH":4516,"BSTAR":0.045036,"MEAN_MOTION_DOT":0.0001674,"MEAN_MOTION_DDOT":0},{"OBJECT_NAME":"ONEWEB-0380","OBJECT_ID":"2021-090AD","EPOCH":"2022-08-18T22:00:00.999936","MEAN_MOTION":13.19706637,"ECCENTRICITY":0.0002006,"INCLINATION":87.9228,"RA_OF_ASC_NODE":222.8543,"ARG_OF_PERICENTER":80.99,"MEAN_ANOMALY":24.6772,"EPHEMERIS_TYPE":0,"CLASSIFICATION_TYPE":"U","NORAD_CAT_ID":49306,"ELEMENT_SET_NO":999,"REV_AT_EPOCH":4328,"BSTAR":0.10014,"MEAN_MOTION_DOT":0.0004027,"MEAN_MOTION_DDOT":0},{"OBJECT_NAME":"ONEWEB-0381","OBJECT_ID":"2021-090AE","EPOCH":"2022-08-18T22:00:00.999936","MEAN_MOTION":13.20773631,"ECCENTRICITY":0.0001954,"INCLINATION":87.9347,"RA_OF_ASC_NODE":192.5987,"ARG_OF_PERICENTER":87.3133,"MEAN_ANOMALY":265.2113,"EPHEMERIS_TYPE":0,"CLASSIFICATION_TYPE":"U","NORAD_CAT_ID":49307,"ELEMENT_SET_NO":999,"REV_AT_EPOCH":4655,"BSTAR":-0.020857,"MEAN_MOTION_DOT":-8.46e-5,"MEAN_MOTION_DDOT":0},{"OBJECT_NAME":"ONEWEB-0382","OBJECT_ID":"2021-090AF","EPOCH":"2022-08-18T22:00:00.999936","MEAN_MOTION":13.20782053,"ECCENTRICITY":0.0001635,"INCLINATION":87.9343,"RA_OF_ASC_NODE":192.586,"ARG_OF_PERICENTER":94.3226,"MEAN_ANOMALY":308.0285,"EPHEMERIS_TYPE":0,"CLASSIFICATION_TYPE":"U","NORAD_CAT_ID":49308,"ELEMENT_SET_NO":999,"REV_AT_EPOCH":4655,"BSTAR":-0.018266,"MEAN_MOTION_DOT":-7.409e-5,"MEAN_MOTION_DDOT":0},{"OBJECT_NAME":"ONEWEB-0383","OBJECT_ID":"2021-090AG","EPOCH":"2022-08-18T22:00:00.999936","MEAN_MOTION":13.14504194,"ECCENTRICITY":0.0002197,"INCLINATION":87.9082,"RA_OF_ASC_NODE":207.6068,"ARG_OF_PERICENTER":92.0924,"MEAN_ANOMALY":337.9048,"EPHEMERIS_TYPE":0,"CLASSIFICATION_TYPE":"U","NORAD_CAT_ID":49309,"ELEMENT_SET_NO":999,"REV_AT_EPOCH":4519,"BSTAR":0.044714,"MEAN_MOTION_DOT":0.0001662,"MEAN_MOTION_DDOT":0},{"OBJECT_NAME":"ONEWEB-0384","OBJECT_ID":"2021-090AH","EPOCH":"2022-08-18T22:00:00.999936","MEAN_MOTION":13.20778236,"ECCENTRICITY":0.000127,"INCLINATION":87.9342,"RA_OF_ASC_NODE":192.5991,"ARG_OF_PERICENTER":105.1579,"MEAN_ANOMALY":307.1933,"EPHEMERIS_TYPE":0,"CLASSIFICATION_TYPE":"U","NORAD_CAT_ID":49310,"ELEMENT_SET_NO":999,"REV_AT_EPOCH":4656,"BSTAR":-0.017487,"MEAN_MOTION_DOT":-7.092e-5,"MEAN_MOTION_DDOT":0},{"OBJECT_NAME":"ONEWEB-0385","OBJECT_ID":"2021-090AJ","EPOCH":"2022-08-18T22:00:00.999936","MEAN_MOTION":13.20776659,"ECCENTRICITY":0.0001807,"INCLINATION":87.9354,"RA_OF_ASC_NODE":192.5733,"ARG_OF_PERICENTER":96.1599,"MEAN_ANOMALY":336.3259,"EPHEMERIS_TYPE":0,"CLASSIFICATION_TYPE":"U","NORAD_CAT_ID":49311,"ELEMENT_SET_NO":999,"REV_AT_EPOCH":4654,"BSTAR":-0.01611,"MEAN_MOTION_DOT":-6.533e-5,"MEAN_MOTION_DDOT":0},{"OBJECT_NAME":"ONEWEB-0386","OBJECT_ID":"2021-090AK","EPOCH":"2022-08-18T22:00:00.999936","MEAN_MOTION":13.20785207,"ECCENTRICITY":0.0002019,"INCLINATION":87.9362,"RA_OF_ASC_NODE":192.5895,"ARG_OF_PERICENTER":100.4108,"MEAN_ANOMALY":261.9447,"EPHEMERIS_TYPE":0,"CLASSIFICATION_TYPE":"U","NORAD_CAT_ID":49312,"ELEMENT_SET_NO":999,"REV_AT_EPOCH":4655,"BSTAR":-0.02055,"MEAN_MOTION_DOT":-8.337e-5,"MEAN_MOTION_DDOT":0},{"OBJECT_NAME":"ONEWEB-0387","OBJECT_ID":"2021-090AL","EPOCH":"2022-08-18T22:00:00.999936","MEAN_MOTION":13.2077972,"ECCENTRICITY":0.0001894,"INCLINATION":87.9364,"RA_OF_ASC_NODE":192.6029,"ARG_OF_PERICENTER":79.001,"MEAN_ANOMALY":343.4966,"EPHEMERIS_TYPE":0,"CLASSIFICATION_TYPE":"U","NORAD_CAT_ID":49313,"ELEMENT_SET_NO":999,"REV_AT_EPOCH":4655,"BSTAR":-0.016708,"MEAN_MOTION_DOT":-6.776e-5,"MEAN_MOTION_DDOT":0},{"OBJECT_NAME":"ONEWEB-0388","OBJECT_ID":"2021-090AM","EPOCH":"2022-08-18T22:00:00.999936","MEAN_MOTION":13.19703852,"ECCENTRICITY":0.0002044,"INCLINATION":87.9214,"RA_OF_ASC_NODE":222.8349,"ARG_OF_PERICENTER":86.7402,"MEAN_ANOMALY":33.5834,"EPHEMERIS_TYPE":0,"CLASSIFICATION_TYPE":"U","NORAD_CAT_ID":49314,"ELEMENT_SET_NO":999,"REV_AT_EPOCH":4328,"BSTAR":0.13825,"MEAN_MOTION_DOT":0.00055683,"MEAN_MOTION_DDOT":0},{"OBJECT_NAME":"ONEWEB-0389","OBJECT_ID":"2021-132A","EPOCH":"2022-08-18T22:00:00.999936","MEAN_MOTION":13.17642246,"ECCENTRICITY":0.0001381,"INCLINATION":87.9055,"RA_OF_ASC_NODE":283.7428,"ARG_OF_PERICENTER":100.0879,"MEAN_ANOMALY":305.2524,"EPHEMERIS_TYPE":0,"CLASSIFICATION_TYPE":"U","NORAD_CAT_ID":50469,"ELEMENT_SET_NO":999,"REV_AT_EPOCH":3523,"BSTAR":0.015268,"MEAN_MOTION_DOT":5.944e-5,"MEAN_MOTION_DDOT":0}]